INTELSAT 10-02          
1 28358U 04022A   21297.75512958 -.00000003  00000-0  00000-0 0  9991
2 28358   0.0495  75.1791 0001150 153.6463  75.4144  1.00272955 63534
XM-3 (RHYTHM)           
1 28626U 05008A   21297.63382565 -.00000198  00000-0  00000-0 0  9995
2 28626   0.0154 250.0361 0000789 241.6152  44.6798  1.00266601 25612
DIRECTV 8               
1 28659U 05019A   21297.87015226  .00000008  00000-0  00000-0 0  9995
2 28659   0.0150 250.7784 0003387 334.3049   2.6372  1.00272636 60067
GALAXY 28 (G-28)        
1 28702U 05022A   21297.63382565 -.00000178  00000-0  00000-0 0  9994
2 28702   0.0191 280.2766 0001326 242.0037  10.1771  1.00272577 34974
GALAXY 14 (G-14)        
1 28790U 05030A   21297.82966091  .00000163  00000-0  00000-0 0  9996
2 28790   0.6682  94.2356 0002815 127.5049 143.3229  1.00274342 59295
GALAXY 15 (G-15)        
1 28884U 05041A   21298.14322531  .00000086  00000-0  00000+0 0  9996
2 28884   0.0510  88.2734 0001741 126.2200  97.8445  1.00271194 58595
SPACEWAY 2              
1 28903U 05046B   21297.52275935  .00000111  00000-0  00000-0 0  9999
2 28903   1.3513  90.2906 0000150  14.2268 337.9562  1.00270747 34327
GALAXY 16 (G-16)        
1 29236U 06023A   21297.63938269 -.00000120  00000-0  00000-0 0  9994
2 29236   0.0145 252.3134 0002569 322.8418 309.3011  1.00272484 55964
DIRECTV 9S              
1 29494U 06043A   21297.63938269 -.00000106  00000-0  00000-0 0  9996
2 29494   0.0149 188.5625 0003248  29.6687 304.0296  1.00272345 34379
XM-4 (BLUES)            
1 29520U 06049A   21298.15349878 -.00000016  00000-0  00000+0 0  9991
2 29520   0.0296 289.3672 0000164 294.7340 109.7286  1.00271840 54997
GALAXY 17 (G-17)        
1 31307U 07016B   21298.02424159 -.00000167  00000-0  00000+0 0  9991
2 31307   0.0080 209.6796 0003589  17.1846  84.5303  1.00272515 53065
DIRECTV 10              
1 31862U 07032A   21297.62222318 -.00000096  00000-0  00000-0 0  9995
2 31862   0.0072  86.7045 0000367  97.6136 330.1686  1.00272686 28592
SPACEWAY 3              
1 32018U 07036A   21298.15364674 -.00000144  00000-0  00000+0 0  9997
2 32018   0.0044 287.9468 0000227 241.3073 184.8994  1.00271313 52120
INTELSAT 11 (IS-11)     
1 32253U 07044B   21297.74675663 -.00000261  00000-0  00000-0 0  9995
2 32253   0.0214 271.0958 0002201 329.0810  19.0541  1.00271952 51489
HORIZONS 2              
1 32388U 07063B   21297.85518552 -.00000176  00000-0  00000-0 0  9995
2 32388   0.0206 286.9732 0002808 312.7462 186.4985  1.00272152 50808
DIRECTV 11              
1 32729U 08013A   21298.16291868 -.00000119  00000-0  00000+0 0  9999
2 32729   0.0205  54.9245 0000315 200.1290  98.2104  1.00271799 49939
GALAXY 18 (G-18)        
1 32951U 08024A   21297.53639170  .00000032  00000-0  00000+0 0  9993
2 32951   0.0214 269.4218 0003236 307.1179 246.7350  1.00272327 49074
INTELSAT 25 (IS-25)     
1 33153U 08034A   21297.74911152 -.00000216  00000-0  00000-0 0  9991
2 33153   0.0228 149.3414 0002910  58.0783  64.1511  1.00271650 48684
GALAXY 19 (G-19)        
1 33376U 08045A   21297.63938269 -.00000132  00000-0  00000-0 0  9993
2 33376   0.0182 249.6679 0003130 325.3482 311.4471  1.00272358 47899
FM-5                    
1 35493U 09034A   21297.59464810 -.00000193  00000-0  00000-0 0  9992
2 35493   0.0263 294.9416 0000450 102.6441 123.5903  1.00274015 29643
INTELSAT 14 (IS-14)     
1 36097U 09064A   21297.74640775 -.00000266  00000-0  00000-0 0  9990
2 36097   0.0136 210.7095 0002984  14.0580  32.3422  1.00273313 43601
INTELSAT 15 (IS-15)     
1 36106U 09067A   21297.87063391 -.00000179  00000-0  00000-0 0  9994
2 36106   0.0139 284.7140 0002463 300.4919 206.8890  1.00271919 24210
DIRECTV 12              
1 36131U 09075A   21297.63938269 -.00000096  00000-0  00000-0 0  9998
2 36131   0.0100 208.2437 0000239  44.8595 267.6466  1.00272026 29550
INTELSAT 16 (IS-16)     
1 36397U 10006A   21297.88368920 -.00000238  00000-0  00000+0 0  9993
2 36397   0.0172 270.4855 0002396 310.9834  53.9877  1.00271537 42707
XM-5                    
1 37185U 10053A   21297.63382565 -.00000198  00000-0  00000-0 0  9991
2 37185   0.0159 230.7252 0000647  30.8534 274.7706  1.00271606 40473
INTELSAT 17 (IS-17)     
1 37238U 10065B   21297.85700744  .00000005  00000-0  00000-0 0  9996
2 37238   0.0296 150.5151 0002518  67.0059 190.4850  1.00270979 36228
INTELSAT NEW DAWN       
1 37392U 11016A   21297.76184538  .00000163  00000-0  00000-0 0  9996
2 37392   0.0124 219.5626 0001552 348.2616 132.6568  1.00274598 36272
INTELSAT 18 (IS-18)     
1 37834U 11056A   21297.83133865  .00000061  00000-0  00000+0 0  9992
2 37834   0.0263 320.0658 0002108 272.2596 280.4259  1.00279112 36839
INTELSAT 22 (IS-22)     
1 38098U 12011A   21298.00882654 -.00000051  00000-0  00000+0 0  9994
2 38098   0.0199 266.7240 0003054 308.6878 253.5064  1.00269759 35044
INTELSAT 19 (IS-19)     
1 38356U 12030A   21297.86022750 -.00000049  00000-0  00000+0 0  9995
2 38356   0.0162 248.9636 0002803 331.8340 288.3592  1.00271339 34504
INTELSAT 20 (IS-20)     
1 38740U 12043A   21297.84077784 -.00000018  00000-0  00000-0 0  9998
2 38740   0.0087 193.4786 0002291 346.7305 224.4485  1.00271460 33735
INTELSAT 21 (IS-21)     
1 38749U 12045A   21297.74379122 -.00000277  00000-0  00000-0 0  9996
2 38749   0.0112 209.9031 0002212   3.6690  29.5944  1.00271785 33529
INTELSAT 23 (IS-23)     
1 38867U 12057A   21298.05152226 -.00000277  00000-0  00000+0 0  9998
2 38867   0.0089 209.6094 0001981   6.5409 143.0756  1.00272846 33107
FM-6                    
1 39360U 13058A   21298.15271552 -.00000010  00000-0  00000+0 0  9999
2 39360   0.0343 274.7291 0000655 181.0708 236.8091  1.00271235 29344
INTELSAT 30 (IS-30)     
1 40271U 14062A   21297.63938269 -.00000144  00000-0  00000-0 0  9994
2 40271   0.0141 260.9773 0001801 205.7264  61.7045  1.00272561 25589
DIRECTV 14              
1 40333U 14078B   21297.59203156 -.00000118  00000-0  00000-0 0  9996
2 40333   0.0302 116.4896 0000121 265.6300 125.0132  1.00272008 25057
DIRECTV 15              
1 40663U 15026A   21297.63938269 -.00000096  00000-0  00000-0 0  9996
2 40663   0.0113 207.2068 0000553  51.1825 262.2206  1.00272848 23452
SKY MEXICO-1            
1 40664U 15026B   21297.57966149 -.00000227  00000-0  00000-0 0  9994
2 40664   0.0150 273.9809 0002274 305.9846 303.1683  1.00271991 23443
INTELSAT 34 (IS-34)     
1 40874U 15039A   21298.14375069 -.00000278  00000-0  00000+0 0  9995
2 40874   0.0269 285.9839 0000491  96.3571   7.7059  1.00274107 22612
INTELSAT 31 (IS-31)     
1 41581U 16035A   21297.63938269 -.00000144  00000-0  00000-0 0  9991
2 41581   0.0156 239.7845 0002026 332.2059 316.4145  1.00273043 19593
INTELSAT 36 (IS-36)     
1 41747U 16053A   21297.84077784 -.00000018  00000-0  00000-0 0  9994
2 41747   0.0153 306.3420 0002557  62.6033  35.7127  1.00272161 18948
INTELSAT 33E (IS-33E)   
1 41748U 16053B   21297.85948437  .00000056  00000-0  00000-0 0  9999
2 41748   0.0334 344.3371 0002033 232.8766 185.6909  1.00272131 19233
INTELSAT 32E (IS-32E)   
1 41945U 17007B   21297.74675663 -.00000262  00000-0  00000-0 0  9994
2 41945   0.0193 251.6107 0000545 273.3605  94.0723  1.00270703 17227
INTELSAT 35E (IS-35E)   
1 42818U 17041A   21297.74850101 -.00000230  00000-0  00000-0 0  9999
2 42818   0.0144 233.2477 0001817 337.3306  57.7813  1.00273360 15801
INTELSAT 37E (IS-37E)   
1 42950U 17059A   21298.04841293 -.00000133  00000-0  00000+0 0  9992
2 42950   0.0179 270.3093 0003323 311.0913 171.7124  1.00270485 15031
AZERSPACE 2 (IS-38)     
1 43632U 18074A   21298.02688179  .00000144  00000-0  00000+0 0  9999
2 43632   0.0121 256.0426 0001552 327.4240 224.9984  1.00271050 11459
HORIZONS 3E             
1 43633U 18074B   21297.86083803 -.00000023  00000-0  00000+0 0  9991
2 43633   0.0049 359.7012 0001801 304.8283 207.8733  1.00271321 11312
AT&T T-16               
1 44333U 19034A   21297.63938269 -.00000108  00000-0  00000-0 0  9991
2 44333   0.0187 249.9483 0000337 280.7521 351.9056  1.00273225  8629
INTELSAT 39 (IS-39)     
1 44476U 19049B   21298.10551139  .00000041  00000-0  00000+0 0  9999
2 44476   0.0141 259.8414 0000419 139.5187  94.3020  1.00271860  8140
GALAXY 30               
1 46114U 20056C   21298.14797837  .00000044  00000-0  00000+0 0  9994
2 46114   0.0161 247.8581 0002277 325.6322 108.5854  1.00268918  4394
IRIDIUM 106             
1 41917U 17003A   21297.88326478  .00000103  00000-0  29702-4 0  9998
2 41917  86.3951  77.3802 0002396  92.8709 267.2761 14.34216919250073
IRIDIUM 103             
1 41918U 17003B   21297.87059085  .00000102  00000-0  29251-4 0  9993
2 41918  86.3951  77.2909 0002037 103.3200 256.8223 14.34215911250097
IRIDIUM 109             
1 41919U 17003C   21297.87692414  .00000099  00000-0  28387-4 0  9997
2 41919  86.3953  77.3196 0002098  96.7225 263.4210 14.34218049250060
IRIDIUM 102             
1 41920U 17003D   21297.84521257  .00000100  00000-0  28825-4 0  9992
2 41920  86.3952  77.2927 0001808  93.4916 266.6487 14.34217920250148
IRIDIUM 105             
1 41921U 17003E   21297.81597757  .00000119  00000-0  35259-4 0  9997
2 41921  86.4007  45.7046 0002626  98.6118 261.5375 14.34221148251994
IRIDIUM 104             
1 41922U 17003F   21297.85790171  .00000099  00000-0  28379-4 0  9999
2 41922  86.3952  77.3044 0002366  96.2599 263.8866 14.34217747250135
IRIDIUM 114             
1 41923U 17003G   21297.86423493  .00000102  00000-0  29495-4 0  9996
2 41923  86.3952  77.2902 0002164  85.2034 274.9408 14.34217716250115
IRIDIUM 108             
1 41924U 17003H   21297.82276996  .00000120  00000-0  35883-4 0  9995
2 41924  86.4001  45.6901 0002443  93.6425 266.5050 14.34216042251984
IRIDIUM 112             
1 41925U 17003J   21297.85154522  .00000103  00000-0  29814-4 0  9997
2 41925  86.3948  77.2172 0001904  83.7360 276.4052 14.34218168250133
